NORAD_CAT_ID,OBJECT_NAME,OBJECT_TYPE,EPOCH,MEAN_MOTION,ECCENTRICITY,INCLINATION,RA_OF_ASC_NODE,ARG_OF_PERICENTER,MEAN_ANOMALY,BSTAR,MEAN_MOTION_DOT,MEAN_MOTION_DDOT,TLE_LINE0,TLE_LINE1,TLE_LINE2,SEMIMAJOR_AXIS,PERIOD,APOGEE,PERIGEE,DECAYED
53006.0,STARLINK-4290,PAYLOAD,2022-09-18 06:00:00,15.08833369,0.0001581,53.217,28.3504,64.8479,10.5396,0.0020239,0.00032063,0.0,0 STARLINK-4290,1 53006U 22076W   22261.25001157  .00032063  00000-0  20239-2 0  9997,2 53006  53.2170  28.3504 0001581  64.8479  10.5396 15.08833369 11821,6917.901,95.438,540.859,538.672,0.0
53006.0,STARLINK-4290,PAYLOAD,2022-09-18 14:00:01,15.08849776,0.0001761999999999,53.2171,26.8554,61.6667,25.3905,-0.0016684999999999,-0.00026751,0.0,0 STARLINK-4290,1 53006U 22076W   22261.58335648 -.00026751  00000-0 -16685-2 0  9997,2 53006  53.2171  26.8554 0001762  61.6667  25.3905 15.08849776  1306,6917.851,95.437,540.934,538.497,0.0
53006.0,STARLINK-4290,PAYLOAD,2022-09-18 22:00:00,15.0886025,0.0001756,53.217,25.3591,57.4879,41.0964,-0.0025131,-0.00040084,0.0,0 STARLINK-4290,1 53006U 22076W   22261.91667824 -.00040084  00000-0 -25131-2 0  9999,2 53006  53.2170  25.3591 0001756  57.4879  41.0964 15.08860250  1301,6917.818,95.436,540.898,538.469,0.0
53006.0,STARLINK-4290,PAYLOAD,2022-09-19 14:00:01,15.08842931,0.000166,53.2173,22.3664,59.1793,62.5905,-0.00071545,-0.00011657,0.0,0 STARLINK-4290,1 53006U 22076W   22262.58334491 -.00011657  00000-0 -71545-3 0  9999,2 53006  53.2173  22.3664 0001660  59.1793  62.5905 15.08842931  1309,6917.871,95.437,540.885,538.5880000000002,0.0
53006.0,STARLINK-4290,PAYLOAD,2022-09-19 22:00:00,15.08861984,0.0001603,53.217,20.8699,55.3057,78.0533,-0.0032963999999999,-0.000524,0.0,0 STARLINK-4290,1 53006U 22076W   22262.91667824 -.00052400  00000-0 -32964-2 0  9997,2 53006  53.2170  20.8699 0001603  55.3057  78.0533 15.08861984  1303,6917.813,95.436,540.7869999999998,538.569,0.0
53006.0,STARLINK-4290,PAYLOAD,2022-09-20 14:00:01,15.08849198,0.0001567,53.2172,17.8774,57.144,99.4026,-0.001113,-0.00017962,0.0,0 STARLINK-4290,1 53006U 22076W   22263.58334491 -.00017962  00000-0 -11130-2 0  9998,2 53006  53.2172  17.8774 0001567  57.1440  99.4026 15.08849198 12185,6917.852,95.437,540.8009999999998,538.633,0.0
53006.0,STARLINK-4290,PAYLOAD,2022-09-20 22:00:01,15.0885027,0.0001598,53.2168,16.3806,56.403,111.8013,-0.002489,-0.00039694,0.0,0 STARLINK-4290,1 53006U 22076W   22263.91668981 -.00039694  00000-0 -24890-2 0  9992,2 53006  53.2168  16.3806 0001598  56.4030 111.8013 15.08850270  1301,6917.849,95.437,540.819,538.609,0.0
53006.0,STARLINK-4290,PAYLOAD,2022-09-21 14:00:01,15.08840918,0.0001626,53.2169,13.3884,58.9365,132.3775,-0.00047816,-7.890000000000001e-05,0.0,0 STARLINK-4290,1 53006U 22076W   22264.58334491 -.00007890  00000-0 -47816-3 0  9999,2 53006  53.2169  13.3884 0001626  58.9365 132.3775 15.08840918 12331,6917.878000000002,95.437,540.867,538.618,0.0
53006.0,STARLINK-4290,PAYLOAD,2022-09-21 22:00:00,15.08854951,0.0001543,53.2166,11.8916,56.0591,146.8452,-0.0032939999999999,-0.00052353,0.0,0 STARLINK-4290,1 53006U 22076W   22264.91667824 -.00052353  00000-0 -32940-2 0  9990,2 53006  53.2166  11.8916 0001543  56.0591 146.8452 15.08854951  1304,6917.835,95.437,540.7669999999998,538.632,0.0
53006.0,STARLINK-4290,PAYLOAD,2022-09-22 14:00:01,15.08831383,0.0001571,53.2167,8.8995,56.2787,169.8038,0.00019675,2.844e-05,0.0,0 STARLINK-4290,1 53006U 22076W   22265.58334491  .00002844  00000-0  19675-3 0  9994,2 53006  53.2167   8.8995 0001571  56.2787 169.8038 15.08831383  1307,6917.906999999997,95.438,540.859,538.685,0.0
53006.0,STARLINK-4290,PAYLOAD,2022-09-22 22:00:00,15.08859049,0.0001539,53.2166,7.4025,55.3386,182.3254,-0.0018541,-0.0002969,0.0,0 STARLINK-4290,1 53006U 22076W   22265.91667824 -.00029690  00000-0 -18541-2 0  9990,2 53006  53.2166   7.4025 0001539  55.3386 182.3254 15.08859049  1303,6917.821999999999,95.436,540.752,538.623,0.0
53006.0,STARLINK-4290,PAYLOAD,2022-09-23 14:00:01,15.08836188,0.0001779,53.2173,4.4195,64.1821,196.654,6.7826e-05,7.91e-06,0.0,0 STARLINK-4290,1 53006U 22076W   22266.58334491  .00000791  00000-0  67826-4 0  9996,2 53006  53.2173   4.4195 0001779  64.1821 196.6540 15.08836188  1309,6917.892,95.438,540.988,538.526,0.0
53006.0,STARLINK-4290,PAYLOAD,2022-09-23 22:00:00,15.08868375,0.0001639,53.2168,2.9135,55.3346,217.1091,-0.0039754,-0.00063052,0.0,0 STARLINK-4290,1 53006U 22076W   22266.91667824 -.00063052  00000-0 -39754-2 0  9990,2 53006  53.2168   2.9135 0001639  55.3346 217.1091 15.08868375  1302,6917.794,95.436,540.7919999999998,538.525,0.0
53006.0,STARLINK-4290,PAYLOAD,2022-09-24 06:00:00,15.08823745,0.0001541999999999,53.2171,1.4161,60.6989,223.3559,0.0020303,0.00032158,0.0,0 STARLINK-4290,1 53006U 22076W   22267.25001157  .00032158  00000-0  20303-2 0  9990,2 53006  53.2171   1.4161 0001542  60.6989 223.3559 15.08823745 12733,6917.93,95.439,540.862,538.7280000000002,0.0
53006.0,STARLINK-4290,PAYLOAD,2022-09-24 14:00:01,15.08834181,0.0001718,53.2172,359.9215,52.8921,242.8174,0.001042,0.00016332,0.0,0 STARLINK-4290,1 53006U 22076W   22267.58335648  .00016332  00000-0  10420-2 0  9996,2 53006  53.2172 359.9215 0001718  52.8921 242.8174 15.08834181  1305,6917.898,95.438,540.952,538.575,0.0
53006.0,STARLINK-4290,PAYLOAD,2022-09-24 22:00:00,15.08873398,0.0001581,53.2172,358.4244,51.0228,256.2146,-0.0043532,-0.00068969,0.0,0 STARLINK-4290,1 53006U 22076W   22267.91667824 -.00068969  00000-0 -43532-2 0  9992,2 53006  53.2172 358.4244 0001581  51.0228 256.2146 15.08873398 12831,6917.778,95.435,540.737,538.55,0.0
53006.0,STARLINK-4290,PAYLOAD,2022-09-25 06:00:00,15.08842596,0.000147,53.2176,356.9272,55.9168,262.9281,0.00078697,0.0001226,0.0,0 STARLINK-4290,1 53006U 22076W   22268.25001157  .00012260  00000-0  78697-3 0  9993,2 53006  53.2176 356.9272 0001470  55.9168 262.9281 15.08842596 12887,6917.871999999999,95.437,540.754,538.721,0.0
53006.0,STARLINK-4290,PAYLOAD,2022-09-25 14:00:01,15.08823445,0.0001656,53.2177,355.4331,47.5277,282.9277,0.0010026,0.00015697,0.0,0 STARLINK-4290,1 53006U 22076W   22268.58334491  .00015697  00000-0  10026-2 0  9997,2 53006  53.2177 355.4331 0001656  47.5277 282.9277 15.08823445  1306,6917.931,95.439,540.942,538.65,0.0
53006.0,STARLINK-4290,PAYLOAD,2022-09-25 22:00:01,15.08856986,0.0001564,53.2176,353.9362,47.8431,294.241,-0.0045119,-0.00071417,0.0,0 STARLINK-4290,1 53006U 22076W   22268.91668981 -.00071417  00000-0 -45119-2 0  9993,2 53006  53.2176 353.9362 0001564  47.8431 294.2410 15.08856986 12982,6917.828,95.436,540.775,538.612,0.0
53006.0,STARLINK-4290,PAYLOAD,2022-09-26 10:00:00,15.08832528,0.0001610999999999,53.2177,351.6913,52.448,126.9373,-0.0010726,-0.00017314,0.0,0 STARLINK-4290,1 53006U 22076W   22269.41667824 -.00017314  00000-0 -10726-2 0  9996,2 53006  53.2177 351.6913 0001611  52.4480 126.9373 15.08832528 13064,6917.903,95.438,540.883,538.654,0.0
53006.0,STARLINK-4290,PAYLOAD,2022-09-26 14:00:01,15.08814956,0.0001719,53.2177,350.944,49.4032,315.7751,0.0014102,0.00022211,0.0,0 STARLINK-4290,1 53006U 22076W   22269.58334491  .00022211  00000-0  14102-2 0  9997,2 53006  53.2177 350.9440 0001719  49.4032 315.7751 15.08814956  1306,6917.956999999999,95.439,541.011,538.633,0.0
53006.0,STARLINK-4290,PAYLOAD,2022-09-26 22:00:00,15.08874016,0.0001626,53.2174,349.4498,47.47,329.2938,-0.0042242,-0.00066954,0.0,0 STARLINK-4290,1 53006U 22076W   22269.91667824 -.00066954  00000-0 -42242-2 0  9993,2 53006  53.2174 349.4498 0001626  47.4700 329.2938 15.08874016  1306,6917.776,95.435,540.766,538.5169999999998,0.0
53006.0,STARLINK-4290,PAYLOAD,2022-09-27 14:00:01,15.08814318,0.0001807,53.2175,346.4551,51.7959,348.1485,0.0017578,0.00027779,0.0,0 STARLINK-4290,1 53006U 22076W   22270.58334491  .00027779  00000-0  17578-2 0  9993,2 53006  53.2175 346.4551 0001807  51.7959 348.1485 15.08814318 13230,6917.959,95.439,541.0740000000002,538.5740000000002,0.0
53006.0,STARLINK-4290,PAYLOAD,2022-09-27 22:00:01,15.08856764,0.0001701,53.2172,344.9573,54.26300000000001,357.3376,-0.00044227,-7.323e-05,0.0,0 STARLINK-4290,1 53006U 22076W   22270.91668981 -.00007323  00000-0 -44227-3 0  9991,2 53006  53.2172 344.9573 0001701  54.2630 357.3376 15.08856764  1308,6917.829000000002,95.436,540.871,538.5169999999998,0.0
53006.0,STARLINK-4290,PAYLOAD,2022-09-28 14:00:01,15.08836296,0.0001661,53.2169,341.9661,47.9767,26.7573,0.00045646,6.983e-05,0.0,0 STARLINK-4290,1 53006U 22076W   22271.58334491  .00006983  00000-0  45646-3 0  9996,2 53006  53.2169 341.9661 0001661  47.9767  26.7573 15.08836296  1308,6917.892,95.438,540.906,538.6080000000002,0.0
53006.0,STARLINK-4290,PAYLOAD,2022-09-28 22:00:00,15.08828668,0.0001465,53.2166,340.4682,50.055,36.2731,-0.00067284,-0.00010977,0.0,0 STARLINK-4290,1 53006U 22076W   22271.91667824 -.00010977  00000-0 -67284-3 0  9994,2 53006  53.2166 340.4682 0001465  50.0550  36.2731 15.08828668  1305,6917.915,95.438,540.794,538.7669999999998,0.0
53006.0,STARLINK-4290,PAYLOAD,2022-09-29 06:00:00,15.08850779,0.0001425,53.2165,338.9718,52.1389,45.7593,-0.0018317,-0.0002933,0.0,0 STARLINK-4290,1 53006U 22076W   22272.25001157 -.00029330  00000-0 -18317-2 0  9998,2 53006  53.2165 338.9718 0001425  52.1389  45.7593 15.08850779 13486,6917.847,95.437,540.698,538.727,0.0
53006.0,STARLINK-4290,PAYLOAD,2022-09-29 14:00:01,15.08798021,0.0001521999999999,53.2162,337.4769,42.7758,66.7224,0.0022068,0.00034967,0.0,0 STARLINK-4290,1 53006U 22076W   22272.58334491  .00034967  00000-0  22068-2 0  9992,2 53006  53.2162 337.4769 0001522  42.7758  66.7224 15.08798021  1309,6918.009,95.44,540.927,538.821,0.0
53006.0,STARLINK-4290,PAYLOAD,2022-09-29 22:00:00,15.08823237,0.0001395999999999,53.216,335.9790000000001,46.4175,74.6426,0.00017321,2.469e-05,0.0,0 STARLINK-4290,1 53006U 22076W   22272.91667824  .00002469  00000-0  17321-3 0  9997,2 53006  53.2160 335.9790 0001396  46.4175  74.6426 15.08823237  1307,6917.932,95.439,540.762,538.831,0.0
